{"type": "FeatureCollection", "features": [{"type": "Feature", "geometry": {"type": "Point", "coordinates": [-79.13001194459056, 43.78582103485489]}, "properties": {"name": "Adams Creek"}}, {"type": "Feature", "geometry": {"type": "Point", "coordinates": [-79.57370017595844, 43.74112856799288]}, "properties": {"name": "Albion Creek"}}, {"type": "Feature", "geometry": {"type": "Point", "coordinates": [-79.21979811595529, 43.72842584282646]}, "properties": {"name": "Bellamy Ravine Creek"}}, {"type": "Feature", "geometry": {"type": "Point", "coordinates": [-79.57729864779206, 43.720400384215864]}, "properties": {"name": "Berry Creek"}}, {"type": "Feature", "geometry": {"type": "Point", "coordinates": [-79.5190899416127, 43.7320772512782]}, "properties": {"name": "Black Creek"}}, {"type": "Feature", "geometry": {"type": "Point", "coordinates": [-79.3721018563114, 43.72022886571171]}, "properties": {"name": "Burke Brook"}}, {"type": "Feature", "geometry": {"type": "Point", "coordinates": [-79.41828929968278, 43.68892036620886]}, "properties": {"name": "Cedarvale Ravine"}}, {"type": "Feature", "geometry": {"type": "Point", "coordinates": [-79.14413883399462, 43.772847714024834]}, "properties": {"name": "Centennial Creek"}}, {"type": "Feature", "geometry": {"type": "Point", "coordinates": [-79.36410324639, 43.69112207731666]}, "properties": {"name": "Cudmore Creek"}}, {"type": "Feature", "geometry": {"type": "Point", "coordinates": [-79.20929488063803, 43.76511737270651]}, "properties": {"name": "Curran Hall Creek"}}, {"type": "Feature", "geometry": {"type": "Point", "coordinates": [-79.35516481019474, 43.697927239974355]}, "properties": {"name": "Don River"}}, {"type": "Feature", "geometry": {"type": "Point", "coordinates": [-79.37616796242291, 43.781448583162046]}, "properties": {"name": "Don River E Branch"}}, {"type": "Feature", "geometry": {"type": "Point", "coordinates": [-79.39111052667629, 43.73512515731793]}, "properties": {"name": "Don River W Branch"}}, {"type": "Feature", "geometry": {"type": "Point", "coordinates": [-79.3664802680199, 43.80704642958127]}, "properties": {"name": "Duncan Creek"}}, {"type": "Feature", "geometry": {"type": "Point", "coordinates": [-79.22783175026791, 43.78317274919627]}, "properties": {"name": "East Highland Creek"}}, {"type": "Feature", "geometry": {"type": "Point", "coordinates": [-79.20064534327966, 43.786722336709545]}, "properties": {"name": "Ellesmere Ravine"}}, {"type": "Feature", "geometry": {"type": "Point", "coordinates": [-79.56950815072737, 43.629498832977774]}, "properties": {"name": "Elmcrest Creek"}}, {"type": "Feature", "geometry": {"type": "Point", "coordinates": [-79.54213340538526, 43.74480108321326]}, "properties": {"name": "Emery Creek"}}, {"type": "Feature", "geometry": {"type": "Point", "coordinates": [-79.56598818697701, 43.621266603766536]}, "properties": {"name": "Etobicoke Creek"}}, {"type": "Feature", "geometry": {"type": "Point", "coordinates": [-79.163157, 43.77851841582795]}, "properties": {"name": "Highland Creek"}}, {"type": "Feature", "geometry": {"type": "Point", "coordinates": [-79.52319185388174, 43.691505416336355]}, "properties": {"name": "Humber Creek"}}, {"type": "Feature", "geometry": {"type": "Point", "coordinates": [-79.50265676676682, 43.654862154412946]}, "properties": {"name": "Humber River"}}, {"type": "Feature", "geometry": {"type": "Point", "coordinates": [-79.58402170886254, 43.758522886668025]}, "properties": {"name": "Humber River E Branch"}}, {"type": "Feature", "geometry": {"type": "Point", "coordinates": [-79.48705039969548, 43.643070569292526]}, "properties": {"name": "Humber River Trib"}}, {"type": "Feature", "geometry": {"type": "Point", "coordinates": [-79.6140669694089, 43.72458126730044]}, "properties": {"name": "Humber River W Branch"}}, {"type": "Feature", "geometry": {"type": "Point", "coordinates": [-79.350786, 43.649116]}, "properties": {"name": "Keating Channel"}}, {"type": "Feature", "geometry": {"type": "Point", "coordinates": [-79.48245316112082, 43.67590732924677]}, "properties": {"name": "Lavender Creek"}}, {"type": "Feature", "geometry": {"type": "Point", "coordinates": [-79.1427663268786, 43.80951290964609]}, "properties": {"name": "Little Rouge River"}}, {"type": "Feature", "geometry": {"type": "Point", "coordinates": [-79.26348760997276, 43.71755414125117]}, "properties": {"name": "Massey Creek"}}, {"type": "Feature", "geometry": {"type": "Point", "coordinates": [-79.58681648220812, 43.68380743816625]}, "properties": {"name": "Mimico Creek"}}, {"type": "Feature", "geometry": {"type": "Point", "coordinates": [-79.19463929122617, 43.81726809829117]}, "properties": {"name": "Rouge River"}}, {"type": "Feature", "geometry": {"type": "Point", "coordinates": [-79.42812625359635, 43.75910351957315]}, "properties": {"name": "Sheppard Creek"}}, {"type": "Feature", "geometry": {"type": "Point", "coordinates": [-79.51883034266352, 43.676362011014604]}, "properties": {"name": "Silver Creek"}}, {"type": "Feature", "geometry": {"type": "Point", "coordinates": [-79.3185672043555, 43.70318188868009]}, "properties": {"name": "Taylor Creek"}}, {"type": "Feature", "geometry": {"type": "Point", "coordinates": [-79.16638457635531, 43.76664067440076]}, "properties": {"name": "Thornton Creek"}}, {"type": "Feature", "geometry": {"type": "Point", "coordinates": [-79.35960584694399, 43.693079332034586]}, "properties": {"name": "Trib. Don River"}}, {"type": "Feature", "geometry": {"type": "Point", "coordinates": [-79.21713485785033, 43.75317685361369]}, "properties": {"name": "West Highland Creek"}}, {"type": "Feature", "geometry": {"type": "Point", "coordinates": [-79.17305422706201, 43.756961434522026]}, "properties": {"name": "West Hill Creek"}}, {"type": "Feature", "geometry": {"type": "Point", "coordinates": [-79.15591832222374, 43.770451251285714]}, "properties": {"name": "West Hill Watercourse"}}, {"type": "Feature", "geometry": {"type": "Point", "coordinates": [-79.36588517163534, 43.736609347087885]}, "properties": {"name": "Wilket Creek"}}, {"type": "Feature", "geometry": {"type": "Point", "coordinates": [-79.38670168496806, 43.687735533678335]}, "properties": {"name": "Yellow Creek"}}]}